{
  "type": "FeatureCollection",
  "features": [
    {
      "type": "Feature",
      "properties": {
        "norad_id": 66390,
        "name": "STARLINK-35665",
        "group": "last-30-days",
        "lat": 46.92914185403082,
        "lon": 5.658962854485807,
        "alt_km": 411.6784089717821,
        "timestamp": "2025-12-02T13:52:16.064121+00:00",
        "meta_object_name": "STARLINK-35665",
        "meta_object_id": "2025-257L",
        "meta_epoch": "2025-12-02T06:00:02.999808",
        "meta_mean_motion": 15.49327169,
        "meta_eccentricity": 0.00014445,
        "meta_inclination": 53.1586,
        "meta_ra_of_asc_node": 313.9033,
        "meta_arg_of_pericenter": 90.9868,
        "meta_mean_anomaly": 304.927,
        "meta_ephemeris_type": 0,
        "meta_classification_type": "U",
        "meta_norad_cat_id": 66390,
        "meta_element_set_no": 999,
        "meta_rev_at_epoch": 490,
        "meta_bstar": -0.0014324881,
        "meta_mean_motion_dot": -0.00079366,
        "meta_mean_motion_ddot": 0,
        "tle_line1": "1 66390U 25257L   25336.25003472 -.00079366  00000+0 -14325-2 0  9996",
        "tle_line2": "2 66390  53.1586 313.9033 0001444  90.9868 304.9270 15.49327169  4904"
      },
      "geometry": {
        "type": "Point",
        "coordinates": [
          5.658962854485807,
          46.92914185403082
        ]
      }
    },
    {
      "type": "Feature",
      "properties": {
        "norad_id": 66391,
        "name": "STARLINK-35656",
        "group": "last-30-days",
        "lat": 52.74410148457689,
        "lon": 51.94710885861238,
        "alt_km": 439.0802357483126,
        "timestamp": "2025-12-02T13:52:16.064133+00:00",
        "meta_object_name": "STARLINK-35656",
        "meta_object_id": "2025-257M",
        "meta_epoch": "2025-12-02T06:00:02.999808",
        "meta_mean_motion": 15.39566671,
        "meta_eccentricity": 0.00017147,
        "meta_inclination": 53.1589,
        "meta_ra_of_asc_node": 313.8105,
        "meta_arg_of_pericenter": 73.7207,
        "meta_mean_anomaly": 3.5284,
        "meta_ephemeris_type": 0,
        "meta_classification_type": "U",
        "meta_norad_cat_id": 66391,
        "meta_element_set_no": 999,
        "meta_rev_at_epoch": 490,
        "meta_bstar": 0.0016851715,
        "meta_mean_motion_dot": 0.00067487,
        "meta_mean_motion_ddot": 0,
        "tle_line1": "1 66391U 25257M   25336.25003472  .00067487  00000+0  16852-2 0  9993",
        "tle_line2": "2 66391  53.1589 313.8105 0001714  73.7207   3.5284 15.39566671  4902"
      },
      "geometry": {
        "type": "Point",
        "coordinates": [
          51.94710885861238,
          52.74410148457689
        ]
      }
    },
    {
      "type": "Feature",
      "properties": {
        "norad_id": 66392,
        "name": "STARLINK-35671",
        "group": "last-30-days",
        "lat": 27.441362557637984,
        "lon": -24.68822532587563,
        "alt_km": 415.6987440136063,
        "timestamp": "2025-12-02T13:52:16.064144+00:00",
        "meta_object_name": "STARLINK-35671",
        "meta_object_id": "2025-257N",
        "meta_epoch": "2025-12-02T06:00:02.999808",
        "meta_mean_motion": 15.49523932,
        "meta_eccentricity": 0.00010567,
        "meta_inclination": 53.1588,
        "meta_ra_of_asc_node": 313.9679,
        "meta_arg_of_pericenter": 87.1764,
        "meta_mean_anomaly": 278.0133,
        "meta_ephemeris_type": 0,
        "meta_classification_type": "U",
        "meta_norad_cat_id": 66392,
        "meta_element_set_no": 999,
        "meta_rev_at_epoch": 481,
        "meta_bstar": -0.011821902,
        "meta_mean_motion_dot": -0.0061338,
        "meta_mean_motion_ddot": 0,
        "tle_line1": "1 66392U 25257N   25336.25003472 -.00613380  00000+0 -11822-1 0  9996",
        "tle_line2": "2 66392  53.1588 313.9679 0001056  87.1764 278.0133 15.49523932  4811"
      },
      "geometry": {
        "type": "Point",
        "coordinates": [
          -24.68822532587563,
          27.441362557637984
        ]
      }
    },
    {
      "type": "Feature",
      "properties": {
        "norad_id": 66393,
        "name": "STARLINK-35652",
        "group": "last-30-days",
        "lat": 26.04722880566357,
        "lon": -26.100755503964063,
        "alt_km": 415.25744879977265,
        "timestamp": "2025-12-02T13:52:16.064154+00:00",
        "meta_object_name": "STARLINK-35652",
        "meta_object_id": "2025-257P",
        "meta_epoch": "2025-12-02T06:00:02.999808",
        "meta_mean_motion": 15.49324064,
        "meta_eccentricity": 0.00016435,
        "meta_inclination": 53.1587,
        "meta_ra_of_asc_node": 313.9711,
        "meta_arg_of_pericenter": 91.3512,
        "meta_mean_anomaly": 271.9724,
        "meta_ephemeris_type": 0,
        "meta_classification_type": "U",
        "meta_norad_cat_id": 66393,
        "meta_element_set_no": 999,
        "meta_rev_at_epoch": 481,
        "meta_bstar": -0.0012480625,
        "meta_mean_motion_dot": -0.00069288,
        "meta_mean_motion_ddot": 0,
        "tle_line1": "1 66393U 25257P   25336.25003472 -.00069288  00000+0 -12481-2 0  9992",
        "tle_line2": "2 66393  53.1587 313.9711 0001643  91.3512 271.9724 15.49324064  4811"
      },
      "geometry": {
        "type": "Point",
        "coordinates": [
          -26.100755503964063,
          26.04722880566357
        ]
      }
    },
    {
      "type": "Feature",
      "properties": {
        "norad_id": 66394,
        "name": "STARLINK-35672",
        "group": "last-30-days",
        "lat": 28.87454850183405,
        "lon": -23.183896183358637,
        "alt_km": 414.7110618852075,
        "timestamp": "2025-12-02T13:52:16.064169+00:00",
        "meta_object_name": "STARLINK-35672",
        "meta_object_id": "2025-257Q",
        "meta_epoch": "2025-12-02T06:00:02.999808",
        "meta_mean_motion": 15.49318282,
        "meta_eccentricity": 0.00015587,
        "meta_inclination": 53.1587,
        "meta_ra_of_asc_node": 313.9626,
        "meta_arg_of_pericenter": 87.6119,
        "meta_mean_anomaly": 279.5459,
        "meta_ephemeris_type": 0,
        "meta_classification_type": "U",
        "meta_norad_cat_id": 66394,
        "meta_element_set_no": 999,
        "meta_rev_at_epoch": 481,
        "meta_bstar": -0.0010547042,
        "meta_mean_motion_dot": -0.00058689,
        "meta_mean_motion_ddot": 0,
        "tle_line1": "1 66394U 25257Q   25336.25003472 -.00058689  00000+0 -10547-2 0  9997",
        "tle_line2": "2 66394  53.1587 313.9626 0001558  87.6119 279.5459 15.49318282  4817"
      },
      "geometry": {
        "type": "Point",
        "coordinates": [
          -23.183896183358637,
          28.87454850183405
        ]
      }
    },
    {
      "type": "Feature",
      "properties": {
        "norad_id": 66395,
        "name": "STARLINK-35681",
        "group": "last-30-days",
        "lat": 30.268071631999128,
        "lon": -21.66063530411098,
        "alt_km": 414.59846549273425,
        "timestamp": "2025-12-02T13:52:16.064180+00:00",
        "meta_object_name": "STARLINK-35681",
        "meta_object_id": "2025-257R",
        "meta_epoch": "2025-12-02T06:00:02.999808",
        "meta_mean_motion": 15.49333043,
        "meta_eccentricity": 0.00015333,
        "meta_inclination": 53.1587,
        "meta_ra_of_asc_node": 313.9594,
        "meta_arg_of_pericenter": 95.9798,
        "meta_mean_anomaly": 273.0944,
        "meta_ephemeris_type": 0,
        "meta_classification_type": "U",
        "meta_norad_cat_id": 66395,
        "meta_element_set_no": 999,
        "meta_rev_at_epoch": 465,
        "meta_bstar": -0.0015377457,
        "meta_mean_motion_dot": -0.00085121,
        "meta_mean_motion_ddot": 0,
        "tle_line1": "1 66395U 25257R   25336.25003472 -.00085121  00000+0 -15377-2 0  9995",
        "tle_line2": "2 66395  53.1587 313.9594 0001533  95.9798 273.0944 15.49333043  4652"
      },
      "geometry": {
        "type": "Point",
        "coordinates": [
          -21.66063530411098,
          30.268071631999128
        ]
      }
    },
    {
      "type": "Feature",
      "properties": {
        "norad_id": 66396,
        "name": "STARLINK-35669",
        "group": "last-30-days",
        "lat": 31.637441608175564,
        "lon": -20.10210472954542,
        "alt_km": 414.2651013081131,
        "timestamp": "2025-12-02T13:52:16.064190+00:00",
        "meta_object_name": "STARLINK-35669",
        "meta_object_id": "2025-257S",
        "meta_epoch": "2025-12-02T06:00:02.999808",
        "meta_mean_motion": 15.4931953,
        "meta_eccentricity": 0.00015114,
        "meta_inclination": 53.1587,
        "meta_ra_of_asc_node": 313.9547,
        "meta_arg_of_pericenter": 89.5314,
        "meta_mean_anomaly": 281.4631,
        "meta_ephemeris_type": 0,
        "meta_classification_type": "U",
        "meta_norad_cat_id": 66396,
        "meta_element_set_no": 999,
        "meta_rev_at_epoch": 481,
        "meta_bstar": -0.0011656295,
        "meta_mean_motion_dot": -0.00064767,
        "meta_mean_motion_ddot": 0,
        "tle_line1": "1 66396U 25257S   25336.25003472 -.00064767  00000+0 -11656-2 0  9995",
        "tle_line2": "2 66396  53.1587 313.9547 0001511  89.5314 281.4631 15.49319530  4819"
      },
      "geometry": {
        "type": "Point",
        "coordinates": [
          -20.10210472954542,
          31.637441608175564
        ]
      }
    }
  ]
}